0 DELTA 1 DEB
1 21364U 75052CJ  13283.11296052 -.00000106  00000-0 -20759-3 0    84
2 21364 099.6839 347.9264 0252152 335.4977 086.6668 12.95286448 57485
0 DELTA 1 DEB
1 21364U 75052CJ  13287.12200715 -.00000342  00000-0 -93141-3 0   100
2 21364 099.6829 351.4691 0252237 326.3927 061.0324 12.95288076 58000
0 DELTA 1 DEB
1 21364U 75052CJ  13288.12617100 -.00000249  00000-0 -64567-3 0   118
2 21364 099.6822 352.3559 0252254 324.1156 063.4979 12.95286963 58134
0 DELTA 1 DEB
1 21364U 75052CJ  13289.13551841 -.00000131  00000-0 -28309-3 0   124
2 21364 099.6818 353.2479 0252277 321.8278 090.1327 12.95285457 58269
0 DELTA 1 DEB
1 21364U 75052CJ  13290.13966830  .00000033  00000-0  22177-3 0   131
2 21364 099.6818 354.1355 0252309 319.5501 092.5314 12.95284029 58391
0 DELTA 1 DEB
1 21364U 75052CJ  13292.14220737  .00000406  00000-0  13657-2 0   140
2 21364 099.6816 355.9050 0252395 315.0049 070.4579 12.95282055 58657
0 DELTA 1 DEB
1 21364U 75052CJ  13293.15226767  .00000549  00000-0  18060-2 0   153
2 21364 099.6819 356.7980 0252402 312.7173 100.4022 12.95281586 58781
0 DELTA 1 DEB
1 21364U 75052CJ  13296.15831924  .00000678  00000-0  22031-2 0   160
2 21364 099.6823 359.4539 0252569 305.8918 077.7257 12.95284825 59179
